[{"OBJECT_NAME":"GEESAT-2 06","OBJECT_ID":"2024-023F","EPOCH":"2026-03-09T23:05:26.548512","MEAN_MOTION":15.0311163,"ECCENTRICITY":0.0006403,"INCLINATION":49.9884,"RA_OF_ASC_NODE":54.2248,"ARG_OF_PERICENTER":18.468,"MEAN_ANOMALY":341.6498,"EPHEMERIS_TYPE":0,"CLASSIFICATION_TYPE":"U","NORAD_CAT_ID":58910,"ELEMENT_SET_NO":999,"REV_AT_EPOCH":11471,"BSTAR":0.00060492991,"MEAN_MOTION_DOT":8.006e-5,"MEAN_MOTION_DDOT":0},{"OBJECT_NAME":"STARLINK-35087","OBJECT_ID":"2025-200X","EPOCH":"2026-03-09T16:54:42.668064","MEAN_MOTION":15.05647932,"ECCENTRICITY":2.221e-5,"INCLINATION":97.6018,"RA_OF_ASC_NODE":139.8223,"ARG_OF_PERICENTER":248.52,"MEAN_ANOMALY":111.6003,"EPHEMERIS_TYPE":0,"CLASSIFICATION_TYPE":"U","NORAD_CAT_ID":65541,"ELEMENT_SET_NO":999,"REV_AT_EPOCH":2913,"BSTAR":0.00034650721,"MEAN_MOTION_DOT":4.942e-5,"MEAN_MOTION_DDOT":0}]
